{
  "type": "FeatureCollection",
  "name": "West_Bengal_Soils_Part2_Plateau",
  "crs": {
    "type": "name",
    "properties": {
      "name": "urn:ogc:def:crs:EPSG::4326"
    }
  },
  "metadata": {
    "title": "West Bengal Soils - Part 2: Chhotanagpur Plateau (Eastern Plateau)",
    "region_covered": "Purulia, Bankura, Jhargram, West Midnapore (western parts)",
    "soil_codes": "WB09 to WB12",
    "scale": "1:500,000",
    "source": "National Bureau of Soil Survey and Land Use Planning (ICAR), Nagpur",
    "part": "2 of 5"
  },
  "features": [
    {
      "type": "Feature",
      "properties": {
        "region": "Chhotanagpur Plateau Fringe - Uplands",
        "soil_code": "WB09",
        "soil_name": "Red and yellow soils, Lateritic soils",
        "soil_group": "Soils of Eastern Plateau (Chhotanagpur Plateau - Gt)",
        "taxonomic_order": "Alfisols",
        "taxonomic_suborder": "Ustalfs",
        "great_group": "Haplustalfs",
        "usda_classification": "Fine Loamy, Typic Haplustalfs",
        "fao_classification": "Luvisols, Acrisols",
        "texture": "Fine loamy",
        "texture_detailed": "Sandy clay loam, Clay loam, Loam",
        "drainage": "Moderately well to well drained",
        "permeability": "Moderate",
        "parent_material": "Weathered granite, Gneiss, Schist",
        "slope": "Nearly level to gently sloping (1-5%)",
        "elevation": "Plateau upland (150-400m)",
        "slope_class": "Nearly level to gently sloping uplands",
        "erosion": "Slight to moderate",
        "surface_stoniness": "Gravelly subsurface (lateritic)",
        "ph_range": "5.0-6.5 (Strongly acidic to slightly acidic)",
        "organic_matter": "Low to medium (0.8-2.0%)",
        "organic_carbon": "0.5-1.2%",
        "cec": "8-15 cmol(+)/kg",
        "base_saturation": "40-65%",
        "available_n": "Low to medium",
        "available_p": "Low",
        "available_k": "Low to medium",
        "soil_depth": "Very deep (>150cm)",
        "rooting_depth": "Deep (100-150cm)",
        "land_use": "Rainfed agriculture (paddy, pulses, oilseeds), Forestry, Horticulture",
        "land_capability": "Class III-IV (Moderate agricultural potential)",
        "irrigation_suitability": "Moderate - irrigation essential for dry season crops",
        "districts": ["Purulia", "Bankura", "West Midnapore (western parts)", "Jhargram"],
        "blocks": ["Purulia I, II", "Bankura I, II", "Jhargram", "Binpur I"],
        "area_percent": 27.4,
        "area_sq_km": 24318,
        "climatic_zone": "Sub-humid to semi-arid",
        "rainfall_mm": "1200-1600",
        "temperature_range": "15-40°C",
        "soil_moisture_regime": "Ustic",
        "soil_temperature_regime": "Hyperthermic",
        "limitations": "Low fertility, Low water holding capacity, Acidity, Moisture stress, Low phosphorus",
        "management_practices": "Organic matter addition, Lime application, Phosphate fertilization, Water harvesting, Mulching",
        "crop_suitability": {
          "highly_suitable": ["Pulses (arhar, mung)", "Oilseeds (groundnut, mustard)", "Millets"],
          "moderately_suitable": ["Paddy (with irrigation)", "Maize", "Vegetables"],
          "marginally_suitable": ["Wheat", "Sugarcane"]
        },
        "productivity_rating": "Medium (with inputs), Low (rainfed)",
        "sheet_number": "Sheet 2",
        "description": "Very deep, moderately well to well drained, fine loamy soils on nearly level to gently sloping uplands; gravelly subsurface. These red lateritic soils are typical of plateau regions with moderate fertility requiring proper management for sustainable agriculture."
      },
      "geometry": {
        "type": "Polygon",
        "coordinates": [[
          [86.5, 23.5], [87.5, 23.5], [87.5, 22.5], [86.5, 22.5], [86.5, 23.5]
        ]]
      }
    },
    {
      "type": "Feature",
      "properties": {
        "region": "Chhotanagpur Plateau - Moderately Sloping Areas",
        "soil_code": "WB10",
        "soil_name": "Red loamy soils, Shallow to moderately deep soils",
        "soil_group": "Soils of Eastern Plateau (Gt)",
        "taxonomic_order": "Entisols",
        "taxonomic_suborder": "Orthents",
        "great_group": "Ustorthents",
        "usda_classification": "Loamy, Typic Ustorthents",
        "fao_classification": "Regosols, Leptosols",
        "texture": "Fine loamy to clayey",
        "texture_detailed": "Sandy clay loam, Clay loam, Gravelly loam",
        "drainage": "Well to moderately well drained",
        "permeability": "Moderate to moderately rapid",
        "parent_material": "Weathered granite, Gneiss with shallow bedrock",
        "slope": "Gently to moderately sloping (3-10%)",
        "elevation": "Plateau slopes (200-500m)",
        "slope_class": "Gently to moderately sloping uplands",
        "erosion": "Moderate to severe",
        "surface_stoniness": "Gravelly surface and subsurface, Rocky outcrops",
        "ph_range": "5.0-6.2 (Strongly acidic to moderately acidic)",
        "organic_matter": "Low (0.6-1.5%)",
        "organic_carbon": "0.4-0.9%",
        "cec": "6-12 cmol(+)/kg",
        "base_saturation": "35-55%",
        "available_n": "Low",
        "available_p": "Very low",
        "available_k": "Low",
        "soil_depth": "Moderately deep to deep (50-100cm)",
        "rooting_depth": "Moderate (50-80cm, restricted by bedrock)",
        "land_use": "Rainfed crops, Grazing land, Forestry, Limited agriculture",
        "land_capability": "Class IV-VI (Limited agricultural use)",
        "irrigation_suitability": "Poor - limited water holding capacity",
        "districts": ["Purulia", "Bankura", "Jhargram"],
        "blocks": ["Jhalda I, II", "Bankura II", "Khatra", "Nayagram"],
        "area_percent": 4.8,
        "area_sq_km": 4260,
        "climatic_zone": "Sub-humid to semi-arid",
        "rainfall_mm": "1100-1500",
        "temperature_range": "14-42°C",
        "soil_moisture_regime": "Ustic (dry)",
        "soil_temperature_regime": "Hyperthermic",
        "limitations": "Shallow depth, Low fertility, High erosion, Stoniness, Severe moisture stress, Bedrock at shallow depth",
        "management_practices": "Soil conservation critical, Contour cultivation, Stone bunding, Limited cropping, Agroforestry",
        "crop_suitability": {
          "highly_suitable": ["None - primarily grazing/forestry"],
          "moderately_suitable": ["Millets", "Pulses (with conservation)"],
          "marginally_suitable": ["Paddy", "Vegetables"]
        },
        "productivity_rating": "Low to very low",
        "sheet_number": "Sheet 2",
        "description": "Moderately deep to deep, well to moderately well drained, fine loamy to clayey soils on gently to moderately sloping uplands; gravelly surface and subsurface. These soils have severe limitations for agriculture and are best suited for forestry or limited grazing."
      },
      "geometry": {
        "type": "Polygon",
        "coordinates": [[
          [86.2, 23.8], [87.0, 23.8], [87.0, 23.0], [86.2, 23.0], [86.2, 23.8]
        ]]
      }
    },
    {
      "type": "Feature",
      "properties": {
        "region": "Chhotanagpur Plateau - Steep Dissected Areas",
        "soil_code": "WB11",
        "soil_name": "Shallow skeletal soils, Rocky soils",
        "soil_group": "Soils of Eastern Plateau (Gt)",
        "taxonomic_order": "Entisols",
        "taxonomic_suborder": "Orthents",
        "great_group": "Ustorthents",
        "usda_classification": "Loamy, Lithic Ustorthents",
        "fao_classification": "Leptosols",
        "texture": "Loamy skeletal",
        "texture_detailed": "Very gravelly sandy loam, Stony loam",
        "drainage": "Somewhat excessively to excessively drained",
        "permeability": "Rapid",
        "parent_material": "Granite, Gneiss with bedrock at shallow depth",
        "slope": "Moderately to very steeply sloping (10-50%)",
        "elevation": "Plateau hills (250-600m)",
        "slope_class": "Moderately to very steeply sloping uplands",
        "erosion": "Severe to very severe",
        "surface_stoniness": "Very stony, Rocky outcrops, Boulders",
        "ph_range": "4.8-5.8 (Very strongly to strongly acidic)",
        "organic_matter": "Very low (0.3-0.8%)",
        "organic_carbon": "0.2-0.5%",
        "cec": "4-8 cmol(+)/kg",
        "base_saturation": "25-45%",
        "available_n": "Very low",
        "available_p": "Very low",
        "available_k": "Low",
        "soil_depth": "Shallow (<50cm to bedrock)",
        "rooting_depth": "Very shallow to shallow (20-50cm)",
        "land_use": "Forest, Scrubland, Limited grazing, Watershed area",
        "land_capability": "Class VII-VIII (Not suitable for cultivation)",
        "irrigation_suitability": "Not applicable",
        "districts": ["Purulia", "Bankura", "Jhargram"],
        "blocks": ["Jhalda I", "Para", "Jaypur", "Gopiballavpur I"],
        "area_percent": 11.4,
        "area_sq_km": 10117,
        "climatic_zone": "Sub-humid to semi-arid",
        "rainfall_mm": "1000-1400",
        "temperature_range": "12-43°C",
        "soil_moisture_regime": "Ustic (very dry)",
        "soil_temperature_regime": "Hyperthermic",
        "limitations": "Very shallow depth, Bedrock at surface, Extreme stoniness, Very steep slopes, Severe erosion, Very low fertility, Extreme drought",
        "management_practices": "No cultivation - protection forestry only, Watershed conservation, Check dams",
        "crop_suitability": {
          "highly_suitable": ["None - forest/conservation only"],
          "moderately_suitable": ["None"],
          "marginally_suitable": ["None"]
        },
        "productivity_rating": "Not applicable for agriculture",
        "sheet_number": "Sheet 2",
        "description": "Shallow, somewhat excessively to excessively drained, loamy skeletal soils on moderately to very steeply sloping uplands with shallow underlying parent materials. These soils are unsuitable for agriculture and must be kept under forest cover for soil and water conservation."
      },
      "geometry": {
        "type": "Polygon",
        "coordinates": [[
          [86.0, 23.5], [86.8, 23.5], [86.8, 22.8], [86.0, 22.8], [86.0, 23.5]
        ]]
      }
    },
    {
      "type": "Feature",
      "properties": {
        "region": "Chhotanagpur Plateau - Rolling Uplands",
        "soil_code": "WB12",
        "soil_name": "Red loamy soils",
        "soil_group": "Soils of Eastern Plateau (Gt)",
        "taxonomic_order": "Inceptisols",
        "taxonomic_suborder": "Ochrepts",
        "great_group": "Ustochrepts",
        "usda_classification": "Fine Loamy, Typic Ustropepts",
        "fao_classification": "Cambisols",
        "texture": "Fine loamy",
        "texture_detailed": "Sandy clay loam, Loam",
        "drainage": "Well drained to somewhat excessively drained",
        "permeability": "Moderate to moderately rapid",
        "parent_material": "Weathered granite, Gneiss colluvium",
        "slope": "Moderately to steeply sloping (8-25%)",
        "elevation": "Upland slopes (200-500m)",
        "slope_class": "Moderately to steeply sloping uplands",
        "erosion": "Moderate to severe",
        "surface_stoniness": "Gravelly surface and subsurface",
        "ph_range": "5.2-6.5 (Strongly to moderately acidic)",
        "organic_matter": "Low (0.7-1.6%)",
        "organic_carbon": "0.4-1.0%",
        "cec": "7-14 cmol(+)/kg",
        "base_saturation": "45-65%",
        "available_n": "Low",
        "available_p": "Low",
        "available_k": "Low to medium",
        "soil_depth": "Shallow to moderately deep (40-90cm)",
        "rooting_depth": "Moderate (50-90cm)",
        "land_use": "Rainfed agriculture, Horticulture (cashew, mango), Forestry",
        "land_capability": "Class IV-VI (Limited cultivation, suited for perennial crops)",
        "irrigation_suitability": "Limited - water harvesting structures needed",
        "districts": ["Purulia", "Bankura", "Jhargram", "West Midnapore"],
        "blocks": ["Arsha", "Raghunathpur", "Santuri", "Jamboni"],
        "area_percent": 3.6,
        "area_sq_km": 3195,
        "climatic_zone": "Sub-humid",
        "rainfall_mm": "1200-1500",
        "temperature_range": "15-40°C",
        "soil_moisture_regime": "Ustic",
        "soil_temperature_regime": "Hyperthermic",
        "limitations": "Moderate slopes, Shallow to moderate depth, Erosion hazard, Low fertility, Moisture stress",
        "management_practices": "Contour bunding, Stone terracing, Cashew/mango plantation, Water conservation, Minimum tillage",
        "crop_suitability": {
          "highly_suitable": ["Cashew", "Mango", "Tamarind", "Sal forest"],
          "moderately_suitable": ["Millets", "Pulses", "Maize (with conservation)"],
          "marginally_suitable": ["Paddy", "Vegetables"]
        },
        "productivity_rating": "Low to medium",
        "sheet_number": "Sheet 2",
        "description": "Shallow to moderately deep, well drained to somewhat excessively drained, fine loamy soils on moderately to steeply sloping uplands; gravelly surface and subsurface. Best suited for horticulture crops like cashew and mango with soil conservation measures."
      },
      "geometry": {
        "type": "Polygon",
        "coordinates": [[
          [86.8, 23.2], [87.4, 23.2], [87.4, 22.6], [86.8, 22.6], [86.8, 23.2]
        ]]
      }
    }
  ]
}