{
  "type": "FeatureCollection",
  "name": "West_Bengal_Soils_Part5_Active_Delta",
  "crs": {
    "type": "name",
    "properties": {
      "name": "urn:ogc:def:crs:EPSG::4326"
    }
  },
  "metadata": {
    "title": "West Bengal Soils - Part 5: Ganga-Brahmaputra Active Delta",
    "region_covered": "North 24 Parganas (northern and central), South 24 Parganas (northern), Nadia (eastern)",
    "soil_codes": "WB26 to WB30",
    "scale": "1:500,000",
    "source": "National Bureau of Soil Survey and Land Use Planning (ICAR), Nagpur",
    "part": "5 of 5",
    "special_features": "Dynamic delta soils with high agricultural potential, requires acidity management"
  },
  "features": [
    {
      "type": "Feature",
      "properties": {
        "region": "Ganga-Brahmaputra Active Delta - Upper Zone",
        "soil_code": "WB26",
        "soil_name": "Grey to brown loamy soils, Fresh water delta soils",
        "soil_group": "Active Delta (Ganga-Brahmaputra delta)",
        "taxonomic_order": "Inceptisols",
        "taxonomic_suborder": "Aquepts",
        "great_group": "Endoaquepts",
        "usda_classification": "Fine to Very Fine Loamy, Typic Endoaquepts",
        "fao_classification": "Gleysols, Fluvisols",
        "texture": "Fine to very fine loamy",
        "texture_detailed": "Silt loam, Silty clay loam, Very fine sandy loam",
        "drainage": "Poorly drained",
        "permeability": "Moderately slow to slow",
        "parent_material": "Recent deltaic alluvium",
        "slope": "Nearly level (0-1%)",
        "elevation": "Active delta (3-15m)",
        "slope_class": "Nearly level active delta plains",
        "erosion": "Slight (riverbank erosion in places)",
        "surface_stoniness": "None",
        "ph_range": "4.5-5.8 (Very strongly to moderately acidic)",
        "organic_matter": "Medium to high (1.8-3.8%)",
        "organic_carbon": "1.1-2.3%",
        "cec": "15-28 cmol(+)/kg",
        "base_saturation": "55-75%",
        "available_n": "Medium to high",
        "available_p": "Medium",
        "available_k": "High",
        "soil_depth": "Very deep (>150cm)",
        "rooting_depth": "Moderate to deep (70-120cm)",
        "land_use": "Paddy (double to triple crop), Jute, Vegetables, Betel leaf",
        "land_capability": "Class II-III (Good for rice and vegetables)",
        "irrigation_suitability": "Moderate - needs drainage in wet season",
        "districts": ["North 24 Parganas", "Nadia", "Murshidabad (southern)"],
        "blocks": ["Hasnabad", "Gaighata", "Baduria", "Habra I, II"],
        "area_percent": 27.5,
        "area_sq_km": 24407,
        "climatic_zone": "Humid tropical",
        "rainfall_mm": "1600-1900",
        "temperature_range": "14-38°C",
        "soil_moisture_regime": "Aquic to Udic",
        "soil_temperature_regime": "Hyperthermic",
        "limitations": "Poor drainage, Strong acidity, Seasonal waterlogging, Aluminium toxicity risk, Flooding risk",
        "management_practices": "Lime application (essential), Drainage improvement, Organic matter addition, Zinc and sulphur application, Green manuring",
        "crop_suitability": {
          "highly_suitable": ["Paddy", "Jute", "Vegetables", "Betel leaf"],
          "moderately_suitable": ["Wheat (with lime and drainage)", "Mustard", "Pulses"],
          "marginally_suitable": ["Maize", "Sugarcane"]
        },
        "productivity_rating": "High for rice, Medium to high for vegetables",
        "sheet_number": "Sheet 4",
        "description": "Very deep, poorly drained, fine to very fine loamy soils on nearly level active delta plains; strongly to moderately acid reaction. These productive delta soils support intensive rice-based cropping systems but require lime application for optimal productivity."
      },
      "geometry": {
        "type": "Polygon",
        "coordinates": [[
          [88.6, 22.9], [89.3, 22.9], [89.3, 22.2], [88.6, 22.2], [88.6, 22.9]
        ]]
      }
    },
    {
      "type": "Feature",
      "properties": {
        "region": "Ganga-Brahmaputra Active Delta - Middle Zone",
        "soil_code": "WB27",
        "soil_name": "Grey loamy soils with mottles",
        "soil_group": "Active Delta",
        "taxonomic_order": "Inceptisols",
        "taxonomic_suborder": "Aquepts",
        "great_group": "Endoaquepts",
        "usda_classification": "Fine to Very Fine Loamy, Typic Endoaquepts",
        "fao_classification": "Gleysols",
        "texture": "Fine to very fine loamy",
        "texture_detailed": "Silt loam, Very fine sandy loam, Silty clay loam",
        "drainage": "Poorly to very poorly drained",
        "permeability": "Slow",
        "parent_material": "Recent fine-textured deltaic deposits",
        "slope": "Nearly level (0-0.5%)",
        "elevation": "Lower active delta (2-10m)",
        "slope_class": "Nearly level active delta plains",
        "erosion": "Slight",
        "surface_stoniness": "None",
        "ph_range": "5.0-6.2 (Strongly to moderately acidic)",
        "organic_matter": "Medium to high (1.5-3.5%)",
        "organic_carbon": "0.9-2.1%",
        "cec": "13-25 cmol(+)/kg",
        "base_saturation": "50-70%",
        "available_n": "Medium to high",
        "available_p": "Medium",
        "available_k": "High",
        "soil_depth": "Very deep (>150cm)",
        "rooting_depth": "Moderate (60-100cm, restricted by poor drainage)",
        "land_use": "Paddy (double crop), Jute, Limited vegetables",
        "land_capability": "Class II-III (Good for rice, limited for upland crops)",
        "irrigation_suitability": "Low - drainage improvement needed",
        "districts": ["North 24 Parganas", "South 24 Parganas (northern)", "Nadia"],
        "blocks": ["Deganga", "Barasat I, II", "Haroa", "Minakhan"],
        "area_percent": 21.5,
        "area_sq_km": 19082,
        "climatic_zone": "Humid tropical",
        "rainfall_mm": "1650-1950",
        "temperature_range": "14-37°C",
        "soil_moisture_regime": "Aquic",
        "soil_temperature_regime": "Hyperthermic",
        "limitations": "Poor to very poor drainage, Moderate to strong acidity, Prolonged waterlogging (5-7 months), Limited dry season cropping",
        "management_practices": "Drainage critical, Lime application, Early maturing rice varieties, Limited rabi cropping, Zinc application",
        "crop_suitability": {
          "highly_suitable": ["Paddy (wet season)", "Jute"],
          "moderately_suitable": ["Vegetables (limited, with drainage)"],
          "marginally_suitable": ["Wheat", "Mustard (difficult without extensive drainage)"]
        },
        "productivity_rating": "High for wetland rice, Low for dry season crops",
        "sheet_number": "Sheet 4",
        "description": "Very deep, poorly to very poorly drained, fine to very fine loamy soils on nearly level active delta plains; moderately acid to slightly acid reaction. These soils are best suited for wetland rice and have severe limitations for dry season agriculture."
      },
      "geometry": {
        "type": "Polygon",
        "coordinates": [[
          [88.7, 22.7], [89.5, 22.7], [89.5, 22.0], [88.7, 22.0], [88.7, 22.7]
        ]]
      }
    },
    {
      "type": "Feature",
      "properties": {
        "region": "Ganga-Brahmaputra Active Delta - Basin Areas",
        "soil_code": "WB28",
        "soil_name": "Grey to dark grey loamy soils",
        "soil_group": "Active Delta",
        "taxonomic_order": "Inceptisols",
        "taxonomic_suborder": "Aquepts",
        "great_group": "Haplaquepts",
        "usda_classification": "Fine to Very Fine Loamy, Typic Haplaquepts",
        "fao_classification": "Gleysols",
        "texture": "Fine to very fine loamy",
        "texture_detailed": "Silt loam, Very fine sandy loam",
        "drainage": "Somewhat poorly to poorly drained",
        "permeability": "Moderately slow",
        "parent_material": "Recent deltaic alluvium in basin positions",
        "slope": "Nearly level (0-1%)",
        "elevation": "Delta basin (2-12m)",
        "slope_class": "Nearly level active delta plains (basin positions)",
        "erosion": "Slight",
        "surface_stoniness": "None",
        "ph_range": "4.8-5.8 (Very strongly to moderately acidic)",
        "organic_matter": "Medium (1.2-2.8%)",
        "organic_carbon": "0.7-1.7%",
        "cec": "12-22 cmol(+)/kg",
        "base_saturation": "50-72%",
        "available_n": "Medium",
        "available_p": "Medium",
        "available_k": "Medium to high",
        "soil_depth": "Very deep (>150cm)",
        "rooting_depth": "Moderate to deep (70-110cm)",
        "land_use": "Paddy (double crop), Vegetables, Jute",
        "land_capability": "Class II (Good agricultural land with acid management)",
        "irrigation_suitability": "Moderate - seasonal drainage needed",
        "districts": ["North 24 Parganas", "South 24 Parganas", "Nadia (eastern)"],
        "blocks": ["Bongaon", "Rajarhat", "Barasat II", "Basirhat I"],
        "area_percent": 23.6,
        "area_sq_km": 20946,
        "climatic_zone": "Humid tropical",
        "rainfall_mm": "1600-1900",
        "temperature_range": "14-37°C",
        "soil_moisture_regime": "Aquic to Udic",
        "soil_temperature_regime": "Hyperthermic",
        "limitations": "Moderate drainage impairment, Strong acidity, Seasonal waterlogging (3-5 months), Aluminium toxicity potential",
        "management_practices": "Lime application (important), Improved drainage, Balanced fertilization, Organic matter incorporation, Zinc and boron application",
        "crop_suitability": {
          "highly_suitable": ["Paddy", "Jute", "Vegetables (with management)"],
          "moderately_suitable": ["Wheat (with lime and drainage)", "Potato", "Mustard"],
          "marginally_suitable": ["Pulses", "Maize"]
        },
        "productivity_rating": "High (with proper lime and drainage management)",
        "sheet_number": "Sheet 4",
        "description": "Very deep, somewhat poorly to poorly drained, fine to very fine loamy soils on nearly level active delta plains; strongly to moderately acid reaction. These soils have good agricultural potential with proper acidity management and drainage improvement."
      },
      "geometry": {
        "type": "Polygon",
        "coordinates": [[
          [88.9, 22.8], [89.6, 22.8], [89.6, 22.1], [88.9, 22.1], [88.9, 22.8]
        ]]
      }
    },
    {
      "type": "Feature",
      "properties": {
        "region": "Ganga-Brahmaputra Active Delta - Levee Features",
        "soil_code": "WB29",
        "soil_name": "Brown to grey brown loamy soils, Natural levee soils",
        "soil_group": "Active Delta",
        "taxonomic_order": "Inceptisols",
        "taxonomic_suborder": "Aquepts/Ochrepts",
        "great_group": "Haplaquepts",
        "usda_classification": "Fine to Very Fine Loamy, Typic Haplaquepts",
        "fao_classification": "Fluvisols, Cambisols",
        "texture": "Fine to very fine loamy",
        "texture_detailed": "Loam, Silt loam, Very fine sandy loam",
        "drainage": "Moderately well drained to well drained",
        "permeability": "Moderate",
        "parent_material": "Recent deltaic deposits on natural levees",
        "slope": "Gently sloping (1-3%)",
        "elevation": "Natural levee (4-18m)",
        "slope_class": "Gently sloping levee-like features of active delta",
        "erosion": "Slight",
        "surface_stoniness": "None",
        "ph_range": "5.5-7.0 (Moderately acidic to neutral)",
        "organic_matter": "Low to medium (0.8-2.0%)",
        "organic_carbon": "0.5-1.2%",
        "cec": "10-20 cmol(+)/kg",
        "base_saturation": "65-85%",
        "available_n": "Medium",
        "available_p": "Medium to high",
        "available_k": "High",
        "soil_depth": "Very deep (>150cm)",
        "rooting_depth": "Deep (100-150cm)",
        "land_use": "Paddy, Vegetables, Jute, Banana, Betel leaf, Homestead gardens",
        "land_capability": "Class I-II (Excellent agricultural land)",
        "irrigation_suitability": "Highly suitable - good drainage",
        "districts": ["North 24 Parganas", "Nadia", "Murshidabad (eastern)"],
        "blocks": ["Habra II", "Gaighata", "Amdanga", "Chakdaha"],
        "area_percent": 20.8,
        "area_sq_km": 18460,
        "climatic_zone": "Humid tropical",
        "rainfall_mm": "1600-1850",
        "temperature_range": "13-38°C",
        "soil_moisture_regime": "Udic to Ustic",
        "soil_temperature_regime": "Hyperthermic",
        "limitations": "Minor - slight acidity in some areas, seasonal moisture stress possible",
        "management_practices": "Balanced fertilization, Crop rotation, Organic manuring, Minor lime application if needed, Efficient irrigation",
        "crop_suitability": {
          "highly_suitable": ["Paddy", "Vegetables", "Jute", "Banana", "Betel leaf", "Fruit trees"],
          "moderately_suitable": ["Wheat", "Potato", "Pulses", "Oilseeds"],
          "marginally_suitable": ["None - suitable for most crops"]
        },
        "productivity_rating": "Very high",
        "sheet_number": "Sheet 4",
        "description": "Very deep, moderately well to well drained, fine to very fine loamy soils on gently sloping levee-like features of active delta; slightly acid to neutral reaction. These are the most productive soils in the delta region, ideal for intensive agriculture and homestead gardens."
      },
      "geometry": {
        "type": "Polygon",
        "coordinates": [[
          [89.0, 22.7], [89.7, 22.7], [89.7, 22.0], [89.0, 22.0], [89.0, 22.7]
        ]]
      }
    },
    {
      "type": "Feature",
      "properties": {
        "region": "Ganga-Brahmaputra Active Delta - Ridge Features",
        "soil_code": "WB30",
        "soil_name": "Brown loamy soils, Delta ridge soils",
        "soil_group": "Active Delta",
        "taxonomic_order": "Entisols",
        "taxonomic_suborder": "Fluvents",
        "great_group": "Ustifluvents",
        "usda_classification": "Fine Loamy to Fine, Typic Ustifluvents",
        "fao_classification": "Fluvisols",
        "texture": "Fine loamy to fine",
        "texture_detailed": "Loam, Clay loam, Silt loam",
        "drainage": "Moderately well to well drained",
        "permeability": "Moderate",
        "parent_material": "Recent alluvial deposits on elevated features",
        "slope": "Gently sloping (2-4%)",
        "elevation": "Delta ridge (5-20m)",
        "slope_class": "Gently sloping levee-like elevated features",
        "erosion": "Slight",
        "surface_stoniness": "None",
        "ph_range": "6.0-7.8 (Slightly acidic to slightly alkaline)",
        "organic_matter": "Low to medium (0.7-1.8%)",
        "organic_carbon": "0.4-1.1%",
        "cec": "12-22 cmol(+)/kg",
        "base_saturation": "70-90%",
        "available_n": "Medium",
        "available_p": "Medium to high",
        "available_k": "High",
        "soil_depth": "Very deep (>150cm)",
        "rooting_depth": "Deep (100-150cm)",
        "land_use": "Paddy, Jute, Vegetables, Fruit orchards, Settlements",
        "land_capability": "Class I-II (Excellent agricultural land)",
        "irrigation_suitability": "Highly suitable - excellent drainage",
        "districts": ["North 24 Parganas", "Nadia", "Murshidabad"],
        "blocks": ["Deganga", "Amdanga", "Kalyani", "Ranaghat"],
        "area_percent": 6.6,
        "area_sq_km": 5858,
        "climatic_zone": "Humid tropical to subtropical",
        "rainfall_mm": "1550-1800",
        "temperature_range": "12-38°C",
        "soil_moisture_regime": "Udic to Ustic",
        "soil_temperature_regime": "Hyperthermic",
        "limitations": "Minimal - very minor limitations for agriculture",
        "management_practices": "Balanced fertilization, Efficient irrigation, Crop diversification, Orchard development, Organic farming potential",
        "crop_suitability": {
          "highly_suitable": ["Paddy", "Jute", "Vegetables", "Banana", "Papaya", "Mango", "Litchi", "All major crops"],
          "moderately_suitable": ["None - suitable for all crops"],
          "marginally_suitable": ["None"]
        },
        "productivity_rating": "Very high - among the best soils in West Bengal",
        "special_features": "Ideal for high-value horticulture, organic farming, and diversified agriculture",
        "sheet_number": "Sheet 4",
        "description": "Very deep, moderately well to well drained, fine loamy to fine soils on gently sloping levee-like elevated features; slightly acid to slightly alkaline reaction. These premium soils represent the best agricultural land in the active delta, suitable for all major crops and high-value horticulture."
      },
      "geometry": {
        "type": "Polygon",
        "coordinates": [[
          [89.2, 22.5], [89.8, 22.5], [89.8, 21.9], [89.2, 21.9], [89.2, 22.5]
        ]]
      }
    }
  ],
  "summary": {
    "total_delta_soils": 5,
    "key_characteristics": {
      "acidic_soils": ["WB26", "WB27", "WB28"],
      "neutral_to_alkaline": ["WB29", "WB30"],
      "high_productivity": ["WB29", "WB30"],
      "lime_requirement": ["WB26", "WB27", "WB28"],
      "drainage_issues": ["WB26", "WB27", "WB28"],
      "excellent_drainage": ["WB29", "WB30"]
    },
    "management_priorities": {
      "critical": "Lime application for WB26-28, Drainage improvement for WB26-27",
      "important": "Zinc and micronutrient management, Organic matter maintenance",
      "beneficial": "Crop diversification on WB29-30, Horticulture development"
    },
    "agricultural_potential": "Very high - these delta soils support intensive rice-vegetable cropping systems and have potential for crop diversification"
  }
}