{
  "type": "FeatureCollection",
  "name": "West_Bengal_Soils_Part4_Bengal_Basin",
  "crs": {
    "type": "name",
    "properties": {
      "name": "urn:ogc:def:crs:EPSG::4326"
    }
  },
  "metadata": {
    "title": "West Bengal Soils - Part 4: Bengal Basin (Including Coastal and Tidal Zones)",
    "region_covered": "North 24 Parganas, South 24 Parganas, Howrah, Nadia (southern parts), Sundarban",
    "soil_codes": "WB20 to WB25",
    "scale": "1:500,000",
    "source": "National Bureau of Soil Survey and Land Use Planning (ICAR), Nagpur",
    "part": "4 of 5",
    "special_note": "Includes unique coastal, tidal, and saline soils of Sundarban region"
  },
  "features": [
    {
      "type": "Feature",
      "properties": {
        "region": "Bengal Basin - Depressional Areas",
        "soil_code": "WB20",
        "soil_name": "Dark grey to black clayey soils, Basin depression soils",
        "soil_group": "Soils of Bengal Basin (Bs)",
        "taxonomic_order": "Alfisols",
        "taxonomic_suborder": "Aqualfs",
        "great_group": "Ochraqualfs",
        "usda_classification": "Fine, Typic Ochraqualfs",
        "fao_classification": "Gleysols, Vertisols",
        "texture": "Fine (clayey)",
        "texture_detailed": "Clay, Heavy clay, Silty clay",
        "drainage": "Poorly drained",
        "permeability": "Very slow",
        "parent_material": "Fine-textured old alluvium in depressional basins",
        "slope": "Nearly level to depressional (0-0.5%)",
        "elevation": "Basin depression (3-25m)",
        "slope_class": "Nearly level to depressional basins",
        "erosion": "None",
        "surface_stoniness": "None",
        "ph_range": "5.5-7.5 (Moderately acidic to slightly alkaline)",
        "organic_matter": "High (2.5-5.0%)",
        "organic_carbon": "1.5-3.0%",
        "cec": "30-50 cmol(+)/kg",
        "base_saturation": "70-88%",
        "available_n": "High",
        "available_p": "Medium",
        "available_k": "High",
        "soil_depth": "Very deep (>150cm)",
        "rooting_depth": "Shallow to moderate (40-80cm, severely restricted by poor drainage)",
        "land_use": "Paddy (single crop), Wetland vegetation, Fish farming",
        "land_capability": "Class III-IV (Suitable only for wetland rice)",
        "irrigation_suitability": "Not needed - waterlogged",
        "districts": ["Hooghly", "Howrah", "North 24 Parganas", "Nadia"],
        "blocks": ["Chanditala I, II", "Udaynarayanpur", "Bally Jagacha", "Haringhata"],
        "area_percent": 10.4,
        "area_sq_km": 9230,
        "climatic_zone": "Humid tropical to subtropical",
        "rainfall_mm": "1500-1800",
        "temperature_range": "12-38°C",
        "soil_moisture_regime": "Aquic (peraquic)",
        "soil_temperature_regime": "Hyperthermic",
        "limitations": "Poor to very poor drainage, Heavy texture, Very slow permeability, Prolonged waterlogging (6-9 months), Near-impossible tillage",
        "management_practices": "Suitable for wetland rice only, Fish farming in deeper areas, Integrated rice-fish farming",
        "crop_suitability": {
          "highly_suitable": ["Deepwater paddy", "Floating rice"],
          "moderately_suitable": ["Fish farming"],
          "marginally_suitable": ["None for upland crops"]
        },
        "productivity_rating": "Medium for deepwater rice, High for integrated rice-fish systems",
        "sheet_number": "Sheet 2",
        "description": "Very deep, poorly drained, fine (clayey) soils on nearly level to depressional basins; slightly acidic to slightly alkaline reaction. These permanently waterlogged soils are suitable only for deepwater rice or fish farming."
      },
      "geometry": {
        "type": "Polygon",
        "coordinates": [[
          [88.0, 23.3], [88.8, 23.3], [88.8, 22.7], [88.0, 22.7], [88.0, 23.3]
        ]]
      }
    },
    {
      "type": "Feature",
      "properties": {
        "region": "Bengal Basin - Lower Gangetic Plain",
        "soil_code": "WB21",
        "soil_name": "Grey to dark grey clayey soils",
        "soil_group": "Soils of Bengal Basin (Bs)",
        "taxonomic_order": "Alfisols",
        "taxonomic_suborder": "Aqualfs",
        "great_group": "Ochraqualfs",
        "usda_classification": "Fine, Typic Ochraqualfs",
        "fao_classification": "Gleysols",
        "texture": "Fine (clayey)",
        "texture_detailed": "Silty clay, Clay",
        "drainage": "Poorly drained",
        "permeability": "Slow",
        "parent_material": "Fine-textured alluvium in basin areas",
        "slope": "Nearly level to depressional (0-1%)",
        "elevation": "Lower basin (2-20m)",
        "slope_class": "Nearly level to depressional basins",
        "erosion": "None",
        "surface_stoniness": "None",
        "ph_range": "5.8-8.0 (Moderately acidic to moderately alkaline)",
        "organic_matter": "High (2.0-4.5%)",
        "organic_carbon": "1.2-2.7%",
        "cec": "28-45 cmol(+)/kg",
        "base_saturation": "72-90%",
        "available_n": "High",
        "available_p": "Medium to high",
        "available_k": "High",
        "soil_depth": "Very deep (>150cm)",
        "rooting_depth": "Moderate (50-90cm, restricted by poor drainage)",
        "land_use": "Paddy (single to double crop), Jute, Vegetables (limited)",
        "land_capability": "Class II-III (Good for rice, limited for others)",
        "irrigation_suitability": "Not needed for kharif, drainage needed for rabi",
        "districts": ["Nadia", "North 24 Parganas", "South 24 Parganas", "Howrah"],
        "blocks": ["Ranaghat II", "Basirhat I, II", "Baruipur", "Amta I, II"],
        "area_percent": 23.4,
        "area_sq_km": 20768,
        "climatic_zone": "Humid tropical",
        "rainfall_mm": "1550-1850",
        "temperature_range": "13-38°C",
        "soil_moisture_regime": "Aquic",
        "soil_temperature_regime": "Hyperthermic",
        "limitations": "Poor drainage, Heavy texture, Slow permeability, Seasonal waterlogging (4-7 months), Slight to moderate alkalinity in some areas",
        "management_practices": "Drainage improvement, Green manuring, Timely transplanting, Zinc and sulphur application, Salt-tolerant varieties in affected areas",
        "crop_suitability": {
          "highly_suitable": ["Paddy (wet season)", "Jute"],
          "moderately_suitable": ["Vegetables (with drainage)", "Mustard"],
          "marginally_suitable": ["Wheat", "Potato (needs extensive drainage)"]
        },
        "productivity_rating": "High for rice, Low to medium for dry crops",
        "sheet_number": "Sheet 2",
        "description": "Very deep, poorly drained, fine (clayey) soils on nearly level to depressional basins; slightly acidic to moderately alkaline reaction. These soils are extensively used for rice cultivation but have severe limitations for dry season crops without proper drainage."
      },
      "geometry": {
        "type": "Polygon",
        "coordinates": [[
          [88.2, 23.0], [89.0, 23.0], [89.0, 22.3], [88.2, 22.3], [88.2, 23.0]
        ]]
      }
    },
    {
      "type": "Feature",
      "properties": {
        "region": "Bengal Basin - Very Low-lying Areas",
        "soil_code": "WB22",
        "soil_name": "Dark grey to black heavy clayey soils, Marsh soils",
        "soil_group": "Soils of Bengal Basin (Bs)",
        "taxonomic_order": "Inceptisols",
        "taxonomic_suborder": "Aquepts",
        "great_group": "Endoaquepts",
        "usda_classification": "Fine, Typic Endoaquepts",
        "fao_classification": "Gleysols (Histosols in organic-rich areas)",
        "texture": "Fine (heavy clayey)",
        "texture_detailed": "Heavy clay, Organic clay",
        "drainage": "Poorly to very poorly drained",
        "permeability": "Very slow to extremely slow",
        "parent_material": "Fine-textured alluvium with organic accumulation",
        "slope": "Nearly level to depressional (0%)",
        "elevation": "Very low-lying marsh (1-15m)",
        "slope_class": "Nearly level to depressional marshy areas",
        "erosion": "None",
        "surface_stoniness": "None",
        "ph_range": "5.5-8.0 (Moderately acidic to moderately alkaline)",
        "organic_matter": "Very high (4.0-10.0%)",
        "organic_carbon": "2.4-6.0%",
        "cec": "35-60 cmol(+)/kg",
        "base_saturation": "68-85%",
        "available_n": "Very high",
        "available_p": "High",
        "available_k": "Very high",
        "soil_depth": "Very deep (>150cm)",
        "rooting_depth": "Very shallow (20-50cm, severely restricted)",
        "land_use": "Deepwater paddy, Wetland, Fish farming, Limited agriculture",
        "land_capability": "Class V-VI (Very limited agricultural use)",
        "irrigation_suitability": "Not applicable - permanently waterlogged",
        "districts": ["South 24 Parganas", "North 24 Parganas"],
        "blocks": ["Basirhat II", "Hasnabad", "Hingalganj", "Sandeshkhali I, II"],
        "area_percent": 1.6,
        "area_sq_km": 1420,
        "climatic_zone": "Humid tropical",
        "rainfall_mm": "1600-2000",
        "temperature_range": "14-37°C",
        "soil_moisture_regime": "Peraquic",
        "soil_temperature_regime": "Hyperthermic",
        "limitations": "Permanent waterlogging, Very heavy texture, Extremely slow permeability, High organic matter decomposition under anaerobic conditions, Methane emission",
        "management_practices": "Deepwater rice varieties, Integrated rice-fish farming, Wetland conservation, No scope for dry season crops",
        "crop_suitability": {
          "highly_suitable": ["Deepwater paddy", "Floating rice", "Fish farming"],
          "moderately_suitable": ["Wetland conservation"],
          "marginally_suitable": ["None for upland crops"]
        },
        "productivity_rating": "Low for crops, High for integrated rice-fish systems",
        "sheet_number": "Sheet 2",
        "description": "Very deep, poorly to very poorly drained, fine (heavy clayey) soils on nearly level to depressional marshy areas; slightly acidic to moderately alkaline reaction. These permanently waterlogged soils are unsuitable for conventional agriculture and are best utilized for wetland conservation or integrated rice-fish farming."
      },
      "geometry": {
        "type": "Polygon",
        "coordinates": [[
          [88.7, 22.8], [89.2, 22.8], [89.2, 22.4], [88.7, 22.4], [88.7, 22.8]
        ]]
      }
    },
    {
      "type": "Feature",
      "properties": {
        "region": "Bengal Basin - Coastal Plain",
        "soil_code": "WB23",
        "soil_name": "Grey to brownish grey clayey soils",
        "soil_group": "Soils of Bengal Basin (Bs)",
        "taxonomic_order": "Alfisols",
        "taxonomic_suborder": "Aqualfs",
        "great_group": "Ochraqualfs",
        "usda_classification": "Fine, Typic Ochraqualfs",
        "fao_classification": "Gleysols",
        "texture": "Fine (clayey)",
        "texture_detailed": "Clay, Silty clay",
        "drainage": "Poorly drained",
        "permeability": "Slow",
        "parent_material": "Marine and fluvio-marine alluvium",
        "slope": "Nearly level to very gently sloping (0-1%)",
        "elevation": "Coastal plain (2-15m)",
        "slope_class": "Nearly level to very gently sloping coastal plains",
        "erosion": "Slight",
        "surface_stoniness": "None",
        "ph_range": "6.0-7.2 (Slightly acidic to neutral)",
        "organic_matter": "Medium to high (1.5-3.5%)",
        "organic_carbon": "0.9-2.1%",
        "cec": "22-38 cmol(+)/kg",
        "base_saturation": "75-92%",
        "available_n": "Medium to high",
        "available_p": "Medium",
        "available_k": "High",
        "soil_depth": "Very deep (>150cm)",
        "rooting_depth": "Moderate to deep (70-110cm)",
        "land_use": "Paddy (dominant), Vegetables, Betel leaf",
        "land_capability": "Class II-III (Good for rice and vegetables)",
        "irrigation_suitability": "Moderate - drainage needed in wet season",
        "districts": ["South 24 Parganas", "North 24 Parganas", "Howrah"],
        "blocks": ["Canning I, II", "Basanti", "Diamond Harbour I, II", "Magrahat I, II"],
        "area_percent": 17.0,
        "area_sq_km": 15088,
        "climatic_zone": "Humid tropical",
        "rainfall_mm": "1650-1950",
        "temperature_range": "15-37°C",
        "soil_moisture_regime": "Aquic to Udic",
        "soil_temperature_regime": "Hyperthermic",
        "limitations": "Poor drainage, Heavy texture, Slight salinity risk in dry season, Cyclone and storm surge vulnerability",
        "management_practices": "Drainage improvement, Salt-tolerant varieties near coast, Betel leaf cultivation in suitable areas, Protective embankments",
        "crop_suitability": {
          "highly_suitable": ["Paddy", "Betel leaf", "Vegetables (with drainage)"],
          "moderately_suitable": ["Jute", "Coconut", "Banana"],
          "marginally_suitable": ["Wheat", "Pulses"]
        },
        "productivity_rating": "High for rice and vegetables",
        "sheet_number": "Sheet 2",
        "description": "Very deep, poorly drained, fine (clayey) soils on nearly level to very gently sloping coastal plains; slightly acidic to neutral reaction. These productive soils support intensive rice and vegetable cultivation with proper water management."
      },
      "geometry": {
        "type": "Polygon",
        "coordinates": [[
          [88.1, 22.6], [88.8, 22.6], [88.8, 21.9], [88.1, 21.9], [88.1, 22.6]
        ]]
      }
    },
    {
      "type": "Feature",
      "properties": {
        "region": "Bengal Basin - Tidal Fluvio-marine Plain",
        "soil_code": "WB24",
        "soil_name": "Grey to dark grey clayey soils, Tidal plain soils",
        "soil_group": "Soils of Bengal Basin (Bs)",
        "taxonomic_order": "Inceptisols",
        "taxonomic_suborder": "Aquepts",
        "great_group": "Endoaquepts",
        "usda_classification": "Fine, Typic Endoaquepts",
        "fao_classification": "Gleysols (Thionic)",
        "texture": "Fine (clayey)",
        "texture_detailed": "Clay, Heavy clay, Silty clay",
        "drainage": "Poorly drained",
        "permeability": "Slow to very slow",
        "parent_material": "Marine and estuarine sediments",
        "slope": "Nearly level (0-0.5%)",
        "elevation": "Tidal plain (0.5-8m)",
        "slope_class": "Nearly level tidal fluvio-marine plains",
        "erosion": "None to slight (tidal action)",
        "surface_stoniness": "None",
        "ph_range": "6.0-8.2 (Slightly acidic to moderately alkaline)",
        "organic_matter": "Medium to high (1.8-4.0%)",
        "organic_carbon": "1.1-2.4%",
        "cec": "25-45 cmol(+)/kg",
        "base_saturation": "78-95%",
        "available_n": "Medium to high",
        "available_p": "Medium to high",
        "available_k": "Very high",
        "soil_depth": "Very deep (>150cm)",
        "rooting_depth": "Moderate (60-100cm, restricted by tidal influence)",
        "land_use": "Paddy, Aquaculture, Mangrove conservation",
        "land_capability": "Class III-IV (Moderate for rice, limited for others)",
        "irrigation_suitability": "Not applicable - tidal area",
        "districts": ["South 24 Parganas", "North 24 Parganas"],
        "blocks": ["Gosaba", "Kultali", "Patharpratima", "Namkhana", "Sagar"],
        "area_percent": 37.1,
        "area_sq_km": 32927,
        "climatic_zone": "Humid tropical",
        "rainfall_mm": "1700-2100",
        "temperature_range": "16-36°C",
        "soil_moisture_regime": "Peraquic (tidal)",
        "soil_temperature_regime": "Hyperthermic",
        "limitations": "Tidal inundation, Poor drainage, Salinity (seasonal to permanent), Acid sulphate risk, Cyclone vulnerability, Limited freshwater availability",
        "management_practices": "Embankment protection, Tidal water management, Salt-tolerant rice varieties, Integrated rice-fish farming, Mangrove afforestation",
        "crop_suitability": {
          "highly_suitable": ["Salt-tolerant paddy", "Aquaculture", "Mangrove"],
          "moderately_suitable": ["Vegetables (in dry season with freshwater)"],
          "marginally_suitable": ["Upland crops"]
        },
        "productivity_rating": "Medium for rice, High for aquaculture",
        "sheet_number": "Sheet 2",
        "description": "Very deep, poorly drained, fine (clayey) soils on nearly level tidal fluvio-marine plains; slightly acidic to moderately alkaline reaction. These soils are influenced by tidal action and require special management for sustainable agriculture and aquaculture."
      },
      "geometry": {
        "type": "Polygon",
        "coordinates": [[
          [88.0, 22.3], [89.1, 22.3], [89.1, 21.5], [88.0, 21.5], [88.0, 22.3]
        ]]
      }
    },
    {
      "type": "Feature",
      "properties": {
        "region": "Bengal Basin - Active Tidal Coastal Zone (Sundarban)",
        "soil_code": "WB25",
        "soil_name": "Dark grey to black saline clayey soils, Coastal saline soils",
        "soil_group": "Soils of Bengal Basin (Bs)",
        "taxonomic_order": "Inceptisols",
        "taxonomic_suborder": "Aquepts",
        "great_group": "Endoaquepts (Salic)",
        "usda_classification": "Fine, Typic Endoaquepts",
        "fao_classification": "Gleysols (Salic, Thionic)",
        "texture": "Fine (clayey)",
        "texture_detailed": "Heavy clay, Saline clay",
        "drainage": "Poorly to very poorly drained",
        "permeability": "Very slow",
        "parent_material": "Marine sediments with high salt content",
        "slope": "Nearly level to tidal (0-0.5%)",
        "elevation": "Active tidal zone (0-4m)",
        "slope_class": "Nearly level tidal affected coastal plains",
        "erosion": "Coastal erosion (moderate to severe)",
        "surface_stoniness": "None",
        "ph_range": "6.5-8.5 (Neutral to moderately alkaline)",
        "organic_matter": "Medium to high (2.0-5.0%)",
        "organic_carbon": "1.2-3.0%",
        "cec": "30-55 cmol(+)/kg",
        "base_saturation": "85-98%",
        "available_n": "Medium (affected by salinity)",
        "available_p": "Low to medium",
        "available_k": "Very high",
        "electrical_conductivity": "8-25 dS/m (Strongly saline)",
        "exchangeable_sodium": "High (>15% ESP)",
        "soil_depth": "Very deep (>150cm)",
        "rooting_depth": "Very shallow to shallow (20-60cm, severely restricted by salinity)",
        "land_use": "Mangrove forest, Saline aquaculture, Limited agriculture with salt-tolerant varieties",
        "land_capability": "Class VI-VII (Very limited agricultural use)",
        "irrigation_suitability": "Not applicable - saline zone",
        "districts": ["South 24 Parganas (Sundarban)", "North 24 Parganas (coastal)"],
        "blocks": ["Gosaba", "Basanti", "Patharpratima", "Namkhana", "Sagar", "Kakdwip"],
        "area_percent": 10.5,
        "area_sq_km": 9319,
        "climatic_zone": "Humid tropical (coastal)",
        "rainfall_mm": "1750-2200",
        "temperature_range": "17-36°C",
        "soil_moisture_regime": "Peraquic (saline tidal)",
        "soil_temperature_regime": "Hyperthermic",
        "limitations": "Strong salinity, Tidal inundation twice daily, Very poor drainage, Acid sulphate potential, Severe cyclone risk, Coastal erosion, Limited freshwater",
        "management_practices": "Mangrove conservation (critical), Saline aquaculture (prawns, crabs), Embankment maintenance, Salt-tolerant forestry, No conventional agriculture",
        "crop_suitability": {
          "highly_suitable": ["Mangrove species", "Saline aquaculture"],
          "moderately_suitable": ["None for agriculture"],
          "marginally_suitable": ["Salt-tolerant paddy (only behind embankments with freshwater)"]
        },
        "productivity_rating": "Very high for mangrove ecosystem services, High for aquaculture, Not suitable for agriculture",
        "conservation_importance": "Critical for coastal protection, biodiversity hotspot, UNESCO World Heritage Site (Sundarban)",
        "sheet_number": "Sheet 2 & 4",
        "description": "Very deep, poorly to very poorly drained, fine (heavy clayey) soils on tidal affected nearly level coastal plains; strongly saline soils. These soils form part of the Sundarban ecosystem and are unsuitable for agriculture but critical for mangrove conservation and coastal protection."
      },
      "geometry": {
        "type": "Polygon",
        "coordinates": [[
          [88.1, 22.0], [89.0, 22.0], [89.0, 21.4], [88.1, 21.4], [88.1, 22.0]
        ]]
      }
    }
  ]
}