{
  "type": "FeatureCollection",
  "name": "West_Bengal_Soils_Part3_Old_New_Alluvial",
  "crs": {
    "type": "name",
    "properties": {
      "name": "urn:ogc:def:crs:EPSG::4326"
    }
  },
  "metadata": {
    "title": "West Bengal Soils - Part 3: Old Alluvial Plains (Rarh) and New Alluvial Plains",
    "region_covered": "Birbhum, Burdwan, Murshidabad, Hooghly, Nadia, North 24 Parganas, Maldah",
    "soil_codes": "WB13 to WB19",
    "scale": "1:500,000",
    "source": "National Bureau of Soil Survey and Land Use Planning (ICAR), Nagpur",
    "part": "3 of 5",
    "note": "These are the most extensive and agriculturally important soils of West Bengal"
  },
  "features": [
    {
      "type": "Feature",
      "properties": {
        "region": "Rarh Plains - Upper Alluvial",
        "soil_code": "WB13",
        "soil_name": "Red and laterite soils, Old alluvial soils",
        "soil_group": "Old Alluvial Plain (Rarh Plain - MuCt)",
        "taxonomic_order": "Alfisols",
        "taxonomic_suborder": "Ustalfs",
        "great_group": "Haplustalfs",
        "usda_classification": "Fine Loamy, Typic Haplustalfs",
        "fao_classification": "Luvisols",
        "texture": "Fine loamy",
        "texture_detailed": "Loam, Sandy clay loam, Clay loam",
        "drainage": "Moderately well to well drained",
        "permeability": "Moderate",
        "parent_material": "Old alluvium (Pleistocene age)",
        "slope": "Nearly level to very gently sloping (0-3%)",
        "elevation": "Upper alluvial plain (30-100m)",
        "slope_class": "Nearly level to very gently sloping plains",
        "erosion": "Slight",
        "surface_stoniness": "None to slight",
        "ph_range": "5.5-7.0 (Moderately acidic to neutral)",
        "organic_matter": "Low to medium (0.8-2.0%)",
        "organic_carbon": "0.5-1.2%",
        "cec": "10-18 cmol(+)/kg",
        "base_saturation": "60-80%",
        "available_n": "Medium",
        "available_p": "Low to medium",
        "available_k": "Medium",
        "soil_depth": "Very deep (>150cm)",
        "rooting_depth": "Deep (100-150cm)",
        "land_use": "Paddy, Pulses, Oilseeds, Vegetables, Potato",
        "land_capability": "Class II-III (Good agricultural land)",
        "irrigation_suitability": "Suitable - requires supplemental irrigation",
        "districts": ["Birbhum", "Burdwan (western parts)", "Murshidabad (western parts)"],
        "blocks": ["Suri I, II", "Bolpur Sriniketan", "Rampurhat I, II", "Kandi"],
        "area_percent": 13.8,
        "area_sq_km": 12248,
        "climatic_zone": "Sub-humid to humid subtropical",
        "rainfall_mm": "1300-1600",
        "temperature_range": "10-40°C",
        "soil_moisture_regime": "Ustic to Udic",
        "soil_temperature_regime": "Hyperthermic",
        "limitations": "Moderate fertility, Seasonal moisture stress, Moderate acidity",
        "management_practices": "Balanced fertilization, Organic matter addition, Crop rotation, Supplemental irrigation",
        "crop_suitability": {
          "highly_suitable": ["Paddy (with irrigation)", "Potato", "Vegetables", "Pulses"],
          "moderately_suitable": ["Wheat", "Mustard", "Maize", "Groundnut"],
          "marginally_suitable": ["Sugarcane", "Jute"]
        },
        "productivity_rating": "Medium to high (with irrigation)",
        "sheet_number": "Sheet 2",
        "description": "Very deep, moderately well to well drained, fine loamy soils on nearly level to very gently sloping plains. These old alluvial soils are moderately productive and extensively cultivated with rice-based cropping systems."
      },
      "geometry": {
        "type": "Polygon",
        "coordinates": [[
          [87.2, 24.2], [88.0, 24.2], [88.0, 23.3], [87.2, 23.3], [87.2, 24.2]
        ]]
      }
    },
    {
      "type": "Feature",
      "properties": {
        "region": "Rarh Plains - Middle Alluvial",
        "soil_code": "WB14",
        "soil_name": "Red and laterite soils, Acidic old alluvial soils",
        "soil_group": "Old Alluvial Plain (MuCt)",
        "taxonomic_order": "Alfisols",
        "taxonomic_suborder": "Ustalfs",
        "great_group": "Haplustalfs",
        "usda_classification": "Fine Loamy, Typic Haplustalfs",
        "fao_classification": "Luvisols, Acrisols",
        "texture": "Fine loamy",
        "texture_detailed": "Sandy clay loam, Clay loam",
        "drainage": "Moderately drained",
        "permeability": "Moderate",
        "parent_material": "Old alluvium (Pleistocene)",
        "slope": "Nearly level (0-1%)",
        "elevation": "Middle alluvial plain (20-80m)",
        "slope_class": "Nearly level plains",
        "erosion": "Slight",
        "surface_stoniness": "None",
        "ph_range": "4.5-5.5 (Very strongly to strongly acidic)",
        "organic_matter": "Low to medium (0.7-1.8%)",
        "organic_carbon": "0.4-1.1%",
        "cec": "8-15 cmol(+)/kg",
        "base_saturation": "45-65%",
        "available_n": "Low to medium",
        "available_p": "Low",
        "available_k": "Low to medium",
        "soil_depth": "Very deep (>150cm)",
        "rooting_depth": "Deep (100-150cm)",
        "land_use": "Paddy, Pulses, Potato, Vegetables, Mustard",
        "land_capability": "Class II-III (Good land with acid limitation)",
        "irrigation_suitability": "Suitable - irrigation needed in dry season",
        "districts": ["Burdwan", "Birbhum", "Hooghly (western parts)", "Bankura (eastern parts)"],
        "blocks": ["Ausgram I, II", "Ketugram I, II", "Galsi I, II", "Monteswar"],
        "area_percent": 29.4,
        "area_sq_km": 26093,
        "climatic_zone": "Humid subtropical",
        "rainfall_mm": "1300-1500",
        "temperature_range": "10-38°C",
        "soil_moisture_regime": "Ustic to Udic",
        "soil_temperature_regime": "Hyperthermic",
        "limitations": "Strong acidity, Low phosphorus, Moderate fertility, Aluminium toxicity risk",
        "management_practices": "Liming (critical), Phosphate fertilization, Organic manuring, Green manuring, Integrated nutrient management",
        "crop_suitability": {
          "highly_suitable": ["Paddy", "Potato", "Vegetables", "Pulses (with lime)"],
          "moderately_suitable": ["Wheat (with lime)", "Mustard", "Sunflower"],
          "marginally_suitable": ["Sugarcane", "Banana"]
        },
        "productivity_rating": "Medium (high with proper lime and fertilizer management)",
        "sheet_number": "Sheet 2",
        "description": "Very deep, moderately drained, fine loamy soils on nearly level plains; strongly acid reaction. These soils represent the largest soil area in West Bengal and are extensively cultivated but require lime application for optimal productivity."
      },
      "geometry": {
        "type": "Polygon",
        "coordinates": [[
          [87.4, 23.9], [88.4, 23.9], [88.4, 22.9], [87.4, 22.9], [87.4, 23.9]
        ]]
      }
    },
    {
      "type": "Feature",
      "properties": {
        "region": "Rarh Plains - Lower Alluvial with Drainage Impairment",
        "soil_code": "WB15",
        "soil_name": "Grey to brown alluvial soils, Hydromorphic soils",
        "soil_group": "Old Alluvial Plain (MuCt)",
        "taxonomic_order": "Alfisols",
        "taxonomic_suborder": "Aqualfs",
        "great_group": "Ochraqualfs/Endoaqualfs",
        "usda_classification": "Fine to Very Fine Loamy, Typic Ochraqualfs",
        "fao_classification": "Planosols, Gleysols",
        "texture": "Fine to very fine loamy",
        "texture_detailed": "Silt loam, Silty clay loam, Clay loam",
        "drainage": "Somewhat poorly to moderately well drained",
        "permeability": "Moderately slow to slow",
        "parent_material": "Old fine-textured alluvium",
        "slope": "Nearly level (0-1%)",
        "elevation": "Lower alluvial plain (15-50m)",
        "slope_class": "Nearly level plains with poor drainage",
        "erosion": "Slight",
        "surface_stoniness": "None",
        "ph_range": "4.8-7.0 (Very strongly acidic to neutral)",
        "organic_matter": "Medium (1.2-2.5%)",
        "organic_carbon": "0.7-1.5%",
        "cec": "12-22 cmol(+)/kg",
        "base_saturation": "50-75%",
        "available_n": "Medium",
        "available_p": "Low to medium",
        "available_k": "Medium to high",
        "soil_depth": "Very deep (>150cm)",
        "rooting_depth": "Moderate to deep (70-120cm, may be restricted by poor drainage)",
        "land_use": "Paddy (dominant), Jute, Pulses, Vegetables",
        "land_capability": "Class II-III (Good for rice, limitations for upland crops)",
        "irrigation_suitability": "Moderate - may need drainage improvement",
        "districts": ["Burdwan", "Nadia", "Murshidabad", "Hooghly"],
        "blocks": ["Memari I, II", "Purbasthali I, II", "Kalna I, II", "Katwa I"],
        "area_percent": 49.5,
        "area_sq_km": 43932,
        "climatic_zone": "Humid subtropical",
        "rainfall_mm": "1400-1600",
        "temperature_range": "10-38°C",
        "soil_moisture_regime": "Aquic to Udic",
        "soil_temperature_regime": "Hyperthermic",
        "limitations": "Seasonal waterlogging, Moderate to strong acidity, Poor drainage, Limited aeration in wet season",
        "management_practices": "Improved drainage, Raised bed cultivation for dry crops, Timely transplanting of rice, Zinc and sulphur application",
        "crop_suitability": {
          "highly_suitable": ["Paddy (wet season)", "Jute"],
          "moderately_suitable": ["Wheat (with drainage)", "Potato", "Vegetables", "Pulses"],
          "marginally_suitable": ["Maize", "Groundnut"]
        },
        "productivity_rating": "High for wetland rice, Medium for upland crops",
        "sheet_number": "Sheet 2",
        "description": "Very deep, somewhat poorly to moderately well drained, fine to very fine loamy soils on nearly level plains; strongly acid to neutral reaction. These are the most extensive soils in West Bengal, ideal for wetland rice cultivation but requiring drainage management for dry season crops."
      },
      "geometry": {
        "type": "Polygon",
        "coordinates": [[
          [87.8, 23.8], [88.8, 23.8], [88.8, 22.8], [87.8, 22.8], [87.8, 23.8]
        ]]
      }
    },
    {
      "type": "Feature",
      "properties": {
        "region": "Rarh Plains - Sandy Alluvial",
        "soil_code": "WB16",
        "soil_name": "Brown sandy loam soils",
        "soil_group": "Old Alluvial Plain (MuCt)",
        "taxonomic_order": "Alfisols",
        "taxonomic_suborder": "Ustalfs",
        "great_group": "Haplustalfs",
        "usda_classification": "Coarse Loamy, Typic Haplustalfs",
        "fao_classification": "Luvisols, Arenosols",
        "texture": "Coarse loamy",
        "texture_detailed": "Sandy loam, Loamy sand, Fine sandy loam",
        "drainage": "Moderately well drained",
        "permeability": "Moderate to moderately rapid",
        "parent_material": "Coarse-textured old alluvium",
        "slope": "Nearly level to very gently sloping (0-2%)",
        "elevation": "Middle alluvial plain (25-70m)",
        "slope_class": "Nearly level to very gently sloping plains",
        "erosion": "Slight",
        "surface_stoniness": "None",
        "ph_range": "4.8-6.2 (Very strongly to moderately acidic)",
        "organic_matter": "Low (0.5-1.2%)",
        "organic_carbon": "0.3-0.7%",
        "cec": "5-10 cmol(+)/kg",
        "base_saturation": "45-65%",
        "available_n": "Low",
        "available_p": "Low",
        "available_k": "Low",
        "soil_depth": "Very deep (>150cm)",
        "rooting_depth": "Deep (100-150cm)",
        "land_use": "Paddy, Potato, Vegetables, Groundnut, Watermelon",
        "land_capability": "Class III (Good land with moisture and fertility limitations)",
        "irrigation_suitability": "Highly suitable - essential for crop production",
        "districts": ["Burdwan", "Hooghly", "Bankura (eastern parts)"],
        "blocks": ["Burdwan I, II", "Raina I, II", "Khandaghosh"],
        "area_percent": 3.7,
        "area_sq_km": 3284,
        "climatic_zone": "Humid subtropical",
        "rainfall_mm": "1350-1550",
        "temperature_range": "10-39°C",
        "soil_moisture_regime": "Ustic",
        "soil_temperature_regime": "Hyperthermic",
        "limitations": "Low water holding capacity, Low fertility, Acidity, Drought proneness, Low organic matter",
        "management_practices": "Frequent irrigation, Heavy organic manuring, Balanced fertilization, Mulching, Green manuring",
        "crop_suitability": {
          "highly_suitable": ["Potato (with irrigation)", "Vegetables", "Watermelon", "Groundnut"],
          "moderately_suitable": ["Paddy (with assured irrigation)", "Pulses"],
          "marginally_suitable": ["Wheat", "Sugarcane"]
        },
        "productivity_rating": "Medium to high (with irrigation and fertilizers)",
        "sheet_number": "Sheet 2",
        "description": "Very deep, moderately well drained, coarse loamy soils on nearly level to very gently sloping plains; strongly to slightly acidic reaction. These light-textured soils are excellent for potato and vegetable cultivation with proper irrigation management."
      },
      "geometry": {
        "type": "Polygon",
        "coordinates": [[
          [87.6, 23.7], [88.2, 23.7], [88.2, 23.2], [87.6, 23.2], [87.6, 23.7]
        ]]
      }
    },
    {
      "type": "Feature",
      "properties": {
        "region": "Gangetic New Alluvial Plains - Levees",
        "soil_code": "WB17",
        "soil_name": "Brown to grey alluvial soils, Recent levee soils",
        "soil_group": "Alluvial Plain (Recent/New Alluvial - Ag)",
        "taxonomic_order": "Entisols",
        "taxonomic_suborder": "Fluvents",
        "great_group": "Ustifluvents",
        "usda_classification": "Fine Loamy, Typic Ustifluvents",
        "fao_classification": "Fluvisols",
        "texture": "Fine loamy",
        "texture_detailed": "Loam, Silt loam, Sandy clay loam",
        "drainage": "Moderately well drained",
        "permeability": "Moderate",
        "parent_material": "Recent alluvium from Ganga and tributaries",
        "slope": "Nearly level to very gently sloping (0-2%)",
        "elevation": "Active flood plain (10-40m)",
        "slope_class": "Nearly level to very gently sloping flood plains (natural levees)",
        "erosion": "Slight",
        "surface_stoniness": "None",
        "ph_range": "6.0-7.8 (Slightly acidic to slightly alkaline)",
        "organic_matter": "Medium (1.0-2.2%)",
        "organic_carbon": "0.6-1.3%",
        "cec": "15-25 cmol(+)/kg",
        "base_saturation": "75-95%",
        "available_n": "Medium to high",
        "available_p": "Medium",
        "available_k": "High",
        "soil_depth": "Very deep (>150cm)",
        "rooting_depth": "Deep (100-150cm)",
        "land_use": "Paddy, Wheat, Jute, Sugarcane, Vegetables, Pulses",
        "land_capability": "Class I-II (Excellent agricultural land)",
        "irrigation_suitability": "Highly suitable - good water availability",
        "districts": ["Murshidabad", "Nadia", "North 24 Parganas", "Hooghly", "Maldah"],
        "blocks": ["Beldanga I, II", "Tehatta I, II", "Krishnanagar I, II", "Ranaghat I"],
        "area_percent": 30.9,
        "area_sq_km": 27424,
        "climatic_zone": "Humid subtropical",
        "rainfall_mm": "1400-1700",
        "temperature_range": "10-40°C",
        "soil_moisture_regime": "Udic to Ustic",
        "soil_temperature_regime": "Hyperthermic",
        "limitations": "Occasional flooding, Variable fertility due to recent deposition",
        "management_practices": "Balanced fertilization, Crop rotation, Timely sowing, Flood management",
        "crop_suitability": {
          "highly_suitable": ["Paddy", "Wheat", "Jute", "Sugarcane", "Vegetables", "Potato"],
          "moderately_suitable": ["Pulses", "Oilseeds", "Maize"],
          "marginally_suitable": ["Cotton"]
        },
        "productivity_rating": "Very high",
        "sheet_number": "Sheet 2",
        "description": "Very deep, moderately well drained, fine loamy soils on nearly level to very gently sloping flood plains; slightly acidic to slightly alkaline reaction. These are among the most fertile and productive soils in West Bengal, suitable for intensive multi-cropping systems."
      },
      "geometry": {
        "type": "Polygon",
        "coordinates": [[
          [88.0, 24.5], [89.0, 24.5], [89.0, 23.5], [88.0, 23.5], [88.0, 24.5]
        ]]
      }
    },
    {
      "type": "Feature",
      "properties": {
        "region": "Gangetic New Alluvial Plains - Basins",
        "soil_code": "WB18",
        "soil_name": "Grey alluvial soils, Basin soils",
        "soil_group": "Alluvial Plain (Ag)",
        "taxonomic_order": "Entisols",
        "taxonomic_suborder": "Fluvents/Aquents",
        "great_group": "Ustifluvents/Fluvaquents",
        "usda_classification": "Fine Loamy to Fine, Typic Ustifluvents",
        "fao_classification": "Fluvisols, Gleysols",
        "texture": "Fine loamy to fine",
        "texture_detailed": "Silty clay loam, Clay loam, Silty clay",
        "drainage": "Somewhat poorly drained",
        "permeability": "Moderately slow",
        "parent_material": "Fine-textured recent alluvium",
        "slope": "Nearly level (0-1%)",
        "elevation": "Lower flood plain (8-35m)",
        "slope_class": "Nearly level flood plains (basins)",
        "erosion": "Slight",
        "surface_stoniness": "None",
        "ph_range": "6.2-8.0 (Slightly acidic to moderately alkaline)",
        "organic_matter": "Medium to high (1.5-3.0%)",
        "organic_carbon": "0.9-1.8%",
        "cec": "18-30 cmol(+)/kg",
        "base_saturation": "80-95%",
        "available_n": "Medium to high",
        "available_p": "Medium to high",
        "available_k": "High",
        "soil_depth": "Very deep (>150cm)",
        "rooting_depth": "Moderate to deep (80-130cm, may be restricted by poor drainage)",
        "land_use": "Paddy (dominant), Jute, Vegetables, Wheat",
        "land_capability": "Class I-II (Excellent for rice, good for other crops with drainage)",
        "irrigation_suitability": "Suitable - may need drainage in wet season",
        "districts": ["Murshidabad", "Nadia", "North 24 Parganas", "Maldah"],
        "blocks": ["Raghunathganj I, II", "Nabadwip", "Karimpur I, II", "Chakdaha"],
        "area_percent": 17.0,
        "area_sq_km": 15088,
        "climatic_zone": "Humid subtropical",
        "rainfall_mm": "1400-1650",
        "temperature_range": "10-39°C",
        "soil_moisture_regime": "Aquic to Udic",
        "soil_temperature_regime": "Hyperthermic",
        "limitations": "Seasonal waterlogging, Poor drainage in monsoon, Limited aeration",
        "management_practices": "Improved drainage, Timely transplanting, Raised bed cultivation for rabi crops, Zinc and boron application",
        "crop_suitability": {
          "highly_suitable": ["Paddy (wet season)", "Jute"],
          "moderately_suitable": ["Wheat (with drainage)", "Vegetables", "Potato", "Pulses"],
          "marginally_suitable": ["Maize", "Sugarcane"]
        },
        "productivity_rating": "Very high for rice, Medium to high for upland crops",
        "sheet_number": "Sheet 2 & 4",
        "description": "Very deep, somewhat poorly drained, fine loamy to fine soils on nearly level flood plains; slightly acidic to slightly alkaline reaction. These are highly productive soils for wetland rice but require drainage improvement for successful dry season cropping."
      },
      "geometry": {
        "type": "Polygon",
        "coordinates": [[
          [88.3, 24.3], [89.2, 24.3], [89.2, 23.6], [88.3, 23.6], [88.3, 24.3]
        ]]
      }
    },
    {
      "type": "Feature",
      "properties": {
        "region": "Gangetic New Alluvial Plains - Low-lying Areas",
        "soil_code": "WB19",
        "soil_name": "Grey to dark grey clayey soils, Low-lying basin soils",
        "soil_group": "Alluvial Plain (Ag)",
        "taxonomic_order": "Inceptisols",
        "taxonomic_suborder": "Aquepts",
        "great_group": "Haplaquepts/Endoaquepts",
        "usda_classification": "Fine, Typic Haplaquepts",
        "fao_classification": "Gleysols",
        "texture": "Fine (clayey)",
        "texture_detailed": "Silty clay, Clay, Heavy clay",
        "drainage": "Somewhat poorly to poorly drained",
        "permeability": "Slow to very slow",
        "parent_material": "Fine-textured recent alluvium with poor drainage",
        "slope": "Nearly level to depressional (0-1%)",
        "elevation": "Low-lying flood plain (5-30m)",
        "slope_class": "Nearly level to depressional flood plains",
        "erosion": "Slight",
        "surface_stoniness": "None",
        "ph_range": "6.0-7.8 (Slightly acidic to slightly alkaline)",
        "organic_matter": "Medium to high (1.8-3.5%)",
        "organic_carbon": "1.1-2.1%",
        "cec": "25-40 cmol(+)/kg",
        "base_saturation": "75-92%",
        "available_n": "Medium to high",
        "available_p": "Medium",
        "available_k": "High",
        "soil_depth": "Very deep (>150cm)",
        "rooting_depth": "Moderate (60-100cm, restricted by poor drainage and heavy texture)",
        "land_use": "Paddy (single to double cropping), Limited dry season crops",
        "land_capability": "Class II-III (Excellent for rice, limited for upland crops)",
        "irrigation_suitability": "Not needed for kharif, drainage needed for rabi",
        "districts": ["Murshidabad", "Nadia", "North 24 Parganas", "Hooghly"],
        "blocks": ["Bhagawangola I, II", "Lalgola", "Karimpur II", "Tehatta II"],
        "area_percent": 13.0,
        "area_sq_km": 11538,
        "climatic_zone": "Humid subtropical",
        "rainfall_mm": "1450-1700",
        "temperature_range": "11-39°C",
        "soil_moisture_regime": "Aquic",
        "soil_temperature_regime": "Hyperthermic",
        "limitations": "Poor drainage, Heavy texture, Slow permeability, Prolonged waterlogging, Difficult tillage when dry",
        "management_practices": "Drainage improvement critical, Suitable for wetland rice only, Green manuring, Early transplanting",
        "crop_suitability": {
          "highly_suitable": ["Paddy (wet season)"],
          "moderately_suitable": ["Jute", "Vegetables (limited)"],
          "marginally_suitable": ["Wheat", "Potato (with extensive drainage)"]
        },
        "productivity_rating": "Very high for wetland rice, Low for dry season crops",
        "sheet_number": "Sheet 2 & 4",
        "description": "Very deep, somewhat poorly to poorly drained, fine (clayey) soils on nearly level to depressional flood plains; slightly acidic to slightly alkaline reaction. These soils are best suited for wetland rice cultivation and are difficult to manage for dry season crops without extensive drainage."
      },
      "geometry": {
        "type": "Polygon",
        "coordinates": [[
          [88.5, 24.0], [89.3, 24.0], [89.3, 23.5], [88.5, 23.5], [88.5, 24.0]
        ]]
      }
    }
  ]
}